{"type": "FeatureCollection", "features": [ {"type": "Feature", "properties": {"norad_id": 28649, "name": "IRS-P5 (CARTOSAT-1)", "group": "resource", "lat": -60.15146147770984, "lon": 32.92843513016153, "alt_km": 603.9426790801808, "timestamp": "2025-12-19T10:50:00.848171+00:00", "meta": {"OBJECT_NAME": "IRS-P5 (CARTOSAT-1)", "OBJECT_ID": "2005-017A", "EPOCH": "2025-12-18T15:46:18.001056", "MEAN_MOTION": 14.9042411, "ECCENTRICITY": 8.721e-05, "INCLINATION": 97.5487, "RA_OF_ASC_NODE": 18.8081, "ARG_OF_PERICENTER": 47.8767, "MEAN_ANOMALY": 312.2525, "EPHEMERIS_TYPE": 0, "CLASSIFICATION_TYPE": "U", "NORAD_CAT_ID": 28649, "ELEMENT_SET_NO": 999, "REV_AT_EPOCH": 11692, "BSTAR": 0.00012153421, "MEAN_MOTION_DOT": 1.132e-05, "MEAN_MOTION_DDOT": 0}, "tle": {"line1": "1 28649U 05017A   25352.65715279  .00001132  00000+0  12153-3 0  9992", "line2": "2 28649  97.5487  18.8081 0000872  47.8767 312.2525 14.90424110116928"}}, "geometry": {"type": "Point", "coordinates": [32.92843513016153, -60.15146147770984]}}, {"type": "Feature", "properties": {"norad_id": 28893, "name": "SINAH 1", "group": "resource", "lat": 14.187865613150187, "lon": 119.92167859449904, "alt_km": 683.7669004048557, "timestamp": "2025-12-19T10:50:00.848182+00:00", "meta": {"OBJECT_NAME": "SINAH 1", "OBJECT_ID": "2005-043D", "EPOCH": "2025-12-18T21:38:43.252800", "MEAN_MOTION": 14.63968938, "ECCENTRICITY": 0.00155957, "INCLINATION": 98.2607, "RA_OF_ASC_NODE": 121.4757, "ARG_OF_PERICENTER": 118.9194, "MEAN_ANOMALY": 241.3575, "EPHEMERIS_TYPE": 0, "CLASSIFICATION_TYPE": "U", "NORAD_CAT_ID": 28893, "ELEMENT_SET_NO": 999, "REV_AT_EPOCH": 7414, "BSTAR": 7.47203e-05, "MEAN_MOTION_DOT": 3.43e-06, "MEAN_MOTION_DDOT": 0}, "tle": {"line1": "1 28893U 05043D   25352.90188950  .00000343  00000+0  74720-4 0  9992", "line2": "2 28893  98.2607 121.4757 0015595 118.9194 241.3575 14.63968938 74149"}}, "geometry": {"type": "Point", "coordinates": [119.92167859449904, 14.187865613150187]}}, {"type": "Feature", "properties": {"norad_id": 29079, "name": "EROS B", "group": "resource", "lat": 45.311937142916655, "lon": 102.86026130801207, "alt_km": 354.3715004340029, "timestamp": "2025-12-19T10:50:00.848193+00:00", "meta": {"OBJECT_NAME": "EROS B", "OBJECT_ID": "2006-014A", "EPOCH": "2025-12-18T22:24:13.969728", "MEAN_MOTION": 15.70195533, "ECCENTRICITY": 0.00033635, "INCLINATION": 97.3466, "RA_OF_ASC_NODE": 109.811, "ARG_OF_PERICENTER": 311.608, "MEAN_ANOMALY": 48.4893, "EPHEMERIS_TYPE": 0, "CLASSIFICATION_TYPE": "U", "NORAD_CAT_ID": 29079, "ELEMENT_SET_NO": 999, "REV_AT_EPOCH": 9177, "BSTAR": 0.0011911967, "MEAN_MOTION_DOT": 0.00146275, "MEAN_MOTION_DDOT": 0}, "tle": {"line1": "1 29079U 06014A   25352.93349502  .00146275  00000+0  11912-2 0  9990", "line2": "2 29079  97.3466 109.8110 0003363 311.6080  48.4893 15.70195533 91777"}}, "geometry": {"type": "Point", "coordinates": [102.86026130801207, 45.311937142916655]}}, {"type": "Feature", "properties": {"norad_id": 29228, "name": "RESURS-DK 1", "group": "resource", "lat": 31.27962367097739, "lon": 97.32478061748496, "alt_km": 530.8555889614809, "timestamp": "2025-12-19T10:50:00.848203+00:00", "meta": {"OBJECT_NAME": "RESURS-DK 1", "OBJECT_ID": "2006-021A", "EPOCH": "2025-12-18T15:38:05.875296", "MEAN_MOTION": 15.12193236, "ECCENTRICITY": 0.0006884, "INCLINATION": 69.9338, "RA_OF_ASC_NODE": 86.5605, "ARG_OF_PERICENTER": 254.5298, "MEAN_ANOMALY": 105.5108, "EPHEMERIS_TYPE": 0, "CLASSIFICATION_TYPE": "U", "NORAD_CAT_ID": 29228, "ELEMENT_SET_NO": 999, "REV_AT_EPOCH": 7527, "BSTAR": 0.00012834748, "MEAN_MOTION_DOT": 2.114e-05, "MEAN_MOTION_DDOT": 0}, "tle": {"line1": "1 29228U 06021A   25352.65145689  .00002114  00000+0  12835-3 0  9992", "line2": "2 29228  69.9338  86.5605 0006884 254.5298 105.5108 15.12193236 75278"}}, "geometry": {"type": "Point", "coordinates": [97.32478061748496, 31.27962367097739]}}, {"type": "Feature", "properties": {"norad_id": 29268, "name": "ARIRANG-2 (KOMPSAT-2)", "group": "resource", "lat": -66.12603533719938, "lon": -160.30034711219193, "alt_km": 676.6325661685996, "timestamp": "2025-12-19T10:50:00.848214+00:00", "meta": {"OBJECT_NAME": "ARIRANG-2 (KOMPSAT-2)", "OBJECT_ID": "2006-031A", "EPOCH": "2025-12-19T00:21:07.111296", "MEAN_MOTION": 14.64500276, "ECCENTRICITY": 0.00132409, "INCLINATION": 97.8255, "RA_OF_ASC_NODE": 181.1812, "ARG_OF_PERICENTER": 287.6964, "MEAN_ANOMALY": 223.8026, "EPHEMERIS_TYPE": 0, "CLASSIFICATION_TYPE": "U", "NORAD_CAT_ID": 29268, "ELEMENT_SET_NO": 999, "REV_AT_EPOCH": 3510, "BSTAR": 0.00010940633, "MEAN_MOTION_DOT": 5.35e-06, "MEAN_MOTION_DDOT": 0}, "tle": {"line1": "1 29268U 06031A   25353.01466564  .00000535  00000+0  10941-3 0  9997", "line2": "2 29268  97.8255 181.1812 0013240 287.6964 223.8026 14.64500276 35106"}}, "geometry": {"type": "Point", "coordinates": [-160.30034711219193, -66.12603533719938]}}, {"type": "Feature", "properties": {"norad_id": 29709, "name": "LAPAN-TUBSAT", "group": "resource", "lat": 18.01783674201792, "lon": -18.9171501004612, "alt_km": 604.2072592894629, "timestamp": "2025-12-19T10:50:00.848224+00:00", "meta": {"OBJECT_NAME": "LAPAN-TUBSAT", "OBJECT_ID": "2007-001A", "EPOCH": "2025-12-18T23:26:13.838784", "MEAN_MOTION": 14.85678119, "ECCENTRICITY": 0.00134727, "INCLINATION": 98.1252, "RA_OF_ASC_NODE": 343.2617, "ARG_OF_PERICENTER": 55.5093, "MEAN_ANOMALY": 304.7391, "EPHEMERIS_TYPE": 0, "CLASSIFICATION_TYPE": "U", "NORAD_CAT_ID": 29709, "ELEMENT_SET_NO": 999, "REV_AT_EPOCH": 2439, "BSTAR": 1.4726136e-05, "MEAN_MOTION_DOT": 7e-07, "MEAN_MOTION_DDOT": 0}, "tle": {"line1": "1 29709U 07001A   25352.97654906  .00000070  00000+0  14726-4 0  9998", "line2": "2 29709  98.1252 343.2617 0013472  55.5093 304.7391 14.85678119 24391"}}, "geometry": {"type": "Point", "coordinates": [-18.9171501004612, 18.01783674201792]}}, {"type": "Feature", "properties": {"norad_id": 31113, "name": "HAIYANG-1B", "group": "resource", "lat": 23.317558228152112, "lon": -26.16916030985378, "alt_km": 778.0210108853962, "timestamp": "2025-12-19T10:50:00.848236+00:00", "meta": {"OBJECT_NAME": "HAIYANG-1B", "OBJECT_ID": "2007-010A", "EPOCH": "2025-12-18T22:58:37.050528", "MEAN_MOTION": 14.3096715, "ECCENTRICITY": 0.00139689, "INCLINATION": 98.3319, "RA_OF_ASC_NODE": 336.9788, "ARG_OF_PERICENTER": 20.3942, "MEAN_ANOMALY": 339.7797, "EPHEMERIS_TYPE": 0, "CLASSIFICATION_TYPE": "U", "NORAD_CAT_ID": 31113, "ELEMENT_SET_NO": 999, "REV_AT_EPOCH": 97485, "BSTAR": 4.9048462e-05, "MEAN_MOTION_DOT": 8.7e-07, "MEAN_MOTION_DDOT": 0}, "tle": {"line1": "1 31113U 07010A   25352.95737327  .00000087  00000+0  49048-4 0  9990", "line2": "2 31113  98.3319 336.9788 0013968  20.3942 339.7797 14.30967150974859"}}, "geometry": {"type": "Point", "coordinates": [-26.16916030985378, 23.317558228152112]}}, {"type": "Feature", "properties": {"norad_id": 31598, "name": "COSMO-SKYMED 1", "group": "resource", "lat": -38.075176524877136, "lon": -7.337467245381306, "alt_km": 587.056344599262, "timestamp": "2025-12-19T10:50:00.848258+00:00", "meta": {"OBJECT_NAME": "COSMO-SKYMED 1", "OBJECT_ID": "2007-023A", "EPOCH": "2025-12-18T22:37:19.084800", "MEAN_MOTION": 14.9581266, "ECCENTRICITY": 0.00015784, "INCLINATION": 97.8835, "RA_OF_ASC_NODE": 178.3823, "ARG_OF_PERICENTER": 86.3856, "MEAN_ANOMALY": 273.7545, "EPHEMERIS_TYPE": 0, "CLASSIFICATION_TYPE": "U", "NORAD_CAT_ID": 31598, "ELEMENT_SET_NO": 999, "REV_AT_EPOCH": 283, "BSTAR": 0.00031630932, "MEAN_MOTION_DOT": 3.472e-05, "MEAN_MOTION_DDOT": 0}, "tle": {"line1": "1 31598U 07023A   25352.94258200  .00003472  00000+0  31631-3 0  9997", "line2": "2 31598  97.8835 178.3823 0001578  86.3856 273.7545 14.95812660  2835"}}, "geometry": {"type": "Point", "coordinates": [-7.337467245381306, -38.075176524877136]}}, {"type": "Feature", "properties": {"norad_id": 31698, "name": "TERRASAR-X", "group": "resource", "lat": 75.52198329304363, "lon": -31.694489299648964, "alt_km": 500.0050801105708, "timestamp": "2025-12-19T10:50:00.848275+00:00", "meta": {"OBJECT_NAME": "TERRASAR-X", "OBJECT_ID": "2007-026A", "EPOCH": "2025-12-18T12:21:42.553440", "MEAN_MOTION": 15.19151199, "ECCENTRICITY": 0.00018406, "INCLINATION": 97.4454, "RA_OF_ASC_NODE": 357.8116, "ARG_OF_PERICENTER": 91.5233, "MEAN_ANOMALY": 268.6213, "EPHEMERIS_TYPE": 0, "CLASSIFICATION_TYPE": "U", "NORAD_CAT_ID": 31698, "ELEMENT_SET_NO": 999, "REV_AT_EPOCH": 2579, "BSTAR": 3.8823467e-05, "MEAN_MOTION_DOT": 7.48e-06, "MEAN_MOTION_DDOT": 0}, "tle": {"line1": "1 31698U 07026A   25352.51507585  .00000748  00000+0  38823-4 0  9991", "line2": "2 31698  97.4454 357.8116 0001840  91.5233 268.6213 15.19151199 25792"}}, "geometry": {"type": "Point", "coordinates": [-31.694489299648964, 75.52198329304363]}}, {"type": "Feature", "properties": {"norad_id": 32060, "name": "WORLDVIEW-1 (WV-1)", "group": "resource", "lat": -33.674945950182014, "lon": -74.11885867958534, "alt_km": 497.7594231823314, "timestamp": "2025-12-19T10:50:00.848287+00:00", "meta": {"OBJECT_NAME": "WORLDVIEW-1 (WV-1)", "OBJECT_ID": "2007-041A", "EPOCH": "2025-12-18T21:17:54.513600", "MEAN_MOTION": 15.24787661, "ECCENTRICITY": 9.41e-05, "INCLINATION": 97.3841, "RA_OF_ASC_NODE": 110.2821, "ARG_OF_PERICENTER": 117.2019, "MEAN_ANOMALY": 242.9315, "EPHEMERIS_TYPE": 0, "CLASSIFICATION_TYPE": "U", "NORAD_CAT_ID": 32060, "ELEMENT_SET_NO": 999, "REV_AT_EPOCH": 1541, "BSTAR": 0.00028990182, "MEAN_MOTION_DOT": 7.118e-05, "MEAN_MOTION_DDOT": 0}, "tle": {"line1": "1 32060U 07041A   25352.88743650  .00007118  00000+0  28990-3 0  9998", "line2": "2 32060  97.3841 110.2821 0000941 117.2019 242.9315 15.24787661 15419"}}, "geometry": {"type": "Point", "coordinates": [-74.11885867958534, -33.674945950182014]}}]}